[{"OBJECT_NAME":"NETSAT-1","OBJECT_ID":"2020-068W","EPOCH":"2026-03-09T22:42:38.711232","MEAN_MOTION":15.32042482,"ECCENTRICITY":0.00057337,"INCLINATION":97.8751,"RA_OF_ASC_NODE":63.2583,"ARG_OF_PERICENTER":18.5877,"MEAN_ANOMALY":341.5572,"EPHEMERIS_TYPE":0,"CLASSIFICATION_TYPE":"U","NORAD_CAT_ID":46506,"ELEMENT_SET_NO":999,"REV_AT_EPOCH":30009,"BSTAR":0.00059222329,"MEAN_MOTION_DOT":0.00018269,"MEAN_MOTION_DDOT":0},{"OBJECT_NAME":"STARLINK-32434","OBJECT_ID":"2024-207B","EPOCH":"2026-03-09T22:03:59.627232","MEAN_MOTION":15.27610225,"ECCENTRICITY":0.00026009,"INCLINATION":43.0007,"RA_OF_ASC_NODE":280.7565,"ARG_OF_PERICENTER":253.1903,"MEAN_ANOMALY":106.8663,"EPHEMERIS_TYPE":0,"CLASSIFICATION_TYPE":"U","NORAD_CAT_ID":61913,"ELEMENT_SET_NO":999,"REV_AT_EPOCH":7475,"BSTAR":0.0013969795,"MEAN_MOTION_DOT":0.00038418,"MEAN_MOTION_DDOT":0}]
